STARLINK-30327          
1 57707U 23129K   26068.51769668  .00007635  00000+0  29314-3 0  9995
2 57707  42.9974  85.9834 0023030  70.8320 289.5022 15.26626807140903
STARLINK-33611          
1 63279U 25053Q   26067.50043365  .00039698  00000+0  14420-2 0  9996
2 63279  42.9988 244.8488 0001540 262.4035  97.6642 15.27634247 56162
